{
  "type": "FeatureCollection",
  "features": [
    {
      "type": "Feature",
      "properties": {
        "norad_id": 34036,
        "name": "COSMOS 2251 DEB",
        "group": "cosmos-2251-debris",
        "lat": 28.774867551860968,
        "lon": -41.21197794720708,
        "alt_km": 573.1637993996919,
        "timestamp": "2025-12-13T10:41:26.159691+00:00",
        "meta_object_name": "COSMOS 2251 DEB",
        "meta_object_id": "1993-036HX",
        "meta_epoch": "2025-12-12T21:10:27.192288",
        "meta_mean_motion": 14.94992159,
        "meta_eccentricity": 0.00123596,
        "meta_inclination": 74.0201,
        "meta_ra_of_asc_node": 148.9789,
        "meta_arg_of_pericenter": 182.0017,
        "meta_mean_anomaly": 178.112,
        "meta_ephemeris_type": 0,
        "meta_classification_type": "U",
        "meta_norad_cat_id": 34036,
        "meta_element_set_no": 999,
        "meta_rev_at_epoch": 88572,
        "meta_bstar": 0.0051915963,
        "meta_mean_motion_dot": 0.00057287,
        "meta_mean_motion_ddot": 0,
        "tle_line1": "1 34036U 93036HX  25346.88225917  .00057287  00000+0  51916-2 0  9991",
        "tle_line2": "2 34036  74.0201 148.9789 0012359 182.0017 178.1120 14.94992159885720"
      },
      "geometry": {
        "type": "Point",
        "coordinates": [
          -41.21197794720708,
          28.774867551860968
        ]
      }
    },
    {
      "type": "Feature",
      "properties": {
        "norad_id": 34037,
        "name": "COSMOS 2251 DEB",
        "group": "cosmos-2251-debris",
        "lat": 52.83315986579088,
        "lon": 71.30973861186926,
        "alt_km": 743.5537929365946,
        "timestamp": "2025-12-13T10:41:26.159701+00:00",
        "meta_object_name": "COSMOS 2251 DEB",
        "meta_object_id": "1993-036HY",
        "meta_epoch": "2025-12-12T21:02:35.559744",
        "meta_mean_motion": 14.34666632,
        "meta_eccentricity": 0.00519656,
        "meta_inclination": 74.0523,
        "meta_ra_of_asc_node": 50.1916,
        "meta_arg_of_pericenter": 100.1547,
        "meta_mean_anomaly": 260.5472,
        "meta_ephemeris_type": 0,
        "meta_classification_type": "U",
        "meta_norad_cat_id": 34037,
        "meta_element_set_no": 999,
        "meta_rev_at_epoch": 87719,
        "meta_bstar": 0.00071595016,
        "meta_mean_motion_dot": 2.032e-05,
        "meta_mean_motion_ddot": 0,
        "tle_line1": "1 34037U 93036HY  25346.87680046  .00002032  00000+0  71595-3 0  9993",
        "tle_line2": "2 34037  74.0523  50.1916 0051965 100.1547 260.5472 14.34666632877195"
      },
      "geometry": {
        "type": "Point",
        "coordinates": [
          71.30973861186926,
          52.83315986579088
        ]
      }
    },
    {
      "type": "Feature",
      "properties": {
        "norad_id": 34040,
        "name": "COSMOS 2251 DEB",
        "group": "cosmos-2251-debris",
        "lat": 36.742771597921774,
        "lon": -127.70739551879274,
        "alt_km": 1136.0403388343511,
        "timestamp": "2025-12-13T10:41:26.159711+00:00",
        "meta_object_name": "COSMOS 2251 DEB",
        "meta_object_id": "1993-036JB",
        "meta_epoch": "2025-12-12T23:29:48.158304",
        "meta_mean_motion": 13.68374888,
        "meta_eccentricity": 0.03430457,
        "meta_inclination": 73.9559,
        "meta_ra_of_asc_node": 65.4679,
        "meta_arg_of_pericenter": 18.7871,
        "meta_mean_anomaly": 342.5546,
        "meta_ephemeris_type": 0,
        "meta_classification_type": "U",
        "meta_norad_cat_id": 34040,
        "meta_element_set_no": 999,
        "meta_rev_at_epoch": 83603,
        "meta_bstar": 0.00060931569,
        "meta_mean_motion_dot": 7.63e-06,
        "meta_mean_motion_ddot": 0,
        "tle_line1": "1 34040U 93036JB  25346.97902961  .00000763  00000+0  60932-3 0  9993",
        "tle_line2": "2 34040  73.9559  65.4679 0343045  18.7871 342.5546 13.68374888836034"
      },
      "geometry": {
        "type": "Point",
        "coordinates": [
          -127.70739551879274,
          36.742771597921774
        ]
      }
    },
    {
      "type": "Feature",
      "properties": {
        "norad_id": 34045,
        "name": "COSMOS 2251 DEB",
        "group": "cosmos-2251-debris",
        "lat": 71.31370304960001,
        "lon": 71.74224426550437,
        "alt_km": 763.7105278788467,
        "timestamp": "2025-12-13T10:41:26.159721+00:00",
        "meta_object_name": "COSMOS 2251 DEB",
        "meta_object_id": "1993-036JG",
        "meta_epoch": "2025-12-12T22:46:01.538688",
        "meta_mean_motion": 14.34068999,
        "meta_eccentricity": 0.00256656,
        "meta_inclination": 74.0392,
        "meta_ra_of_asc_node": 310.4492,
        "meta_arg_of_pericenter": 33.835,
        "meta_mean_anomaly": 21.8672,
        "meta_ephemeris_type": 0,
        "meta_classification_type": "U",
        "meta_norad_cat_id": 34045,
        "meta_element_set_no": 999,
        "meta_rev_at_epoch": 88036,
        "meta_bstar": 0.00015289557,
        "meta_mean_motion_dot": 4.03e-06,
        "meta_mean_motion_ddot": 0,
        "tle_line1": "1 34045U 93036JG  25346.94862892  .00000403  00000+0  15290-3 0  9991",
        "tle_line2": "2 34045  74.0392 310.4492 0025665  33.8350  21.8672 14.34068999880366"
      },
      "geometry": {
        "type": "Point",
        "coordinates": [
          71.74224426550437,
          71.31370304960001
        ]
      }
    },
    {
      "type": "Feature",
      "properties": {
        "norad_id": 34046,
        "name": "COSMOS 2251 DEB",
        "group": "cosmos-2251-debris",
        "lat": 56.08731700509853,
        "lon": 163.9632141722584,
        "alt_km": 684.4891396681569,
        "timestamp": "2025-12-13T10:41:26.159731+00:00",
        "meta_object_name": "COSMOS 2251 DEB",
        "meta_object_id": "1993-036JH",
        "meta_epoch": "2025-12-12T20:01:17.831424",
        "meta_mean_motion": 14.46474298,
        "meta_eccentricity": 0.0074505,
        "meta_inclination": 74.0403,
        "meta_ra_of_asc_node": 10.2965,
        "meta_arg_of_pericenter": 93.7041,
        "meta_mean_anomaly": 84.7064,
        "meta_ephemeris_type": 0,
        "meta_classification_type": "U",
        "meta_norad_cat_id": 34046,
        "meta_element_set_no": 999,
        "meta_rev_at_epoch": 87827,
        "meta_bstar": 0.0017041918,
        "meta_mean_motion_dot": 6.325e-05,
        "meta_mean_motion_ddot": 0,
        "tle_line1": "1 34046U 93036JH  25346.83423416  .00006325  00000+0  17042-2 0  9990",
        "tle_line2": "2 34046  74.0403  10.2965 0074505  93.7041  84.7064 14.46474298878275"
      },
      "geometry": {
        "type": "Point",
        "coordinates": [
          163.9632141722584,
          56.08731700509853
        ]
      }
    },
    {
      "type": "Feature",
      "properties": {
        "norad_id": 34050,
        "name": "COSMOS 2251 DEB",
        "group": "cosmos-2251-debris",
        "lat": -46.875918417157614,
        "lon": -153.42488698459408,
        "alt_km": 1056.056583999777,
        "timestamp": "2025-12-13T10:41:26.159741+00:00",
        "meta_object_name": "COSMOS 2251 DEB",
        "meta_object_id": "1993-036JM",
        "meta_epoch": "2025-12-12T09:49:43.079232",
        "meta_mean_motion": 13.96180826,
        "meta_eccentricity": 0.0214555,
        "meta_inclination": 74.0883,
        "meta_ra_of_asc_node": 10.6188,
        "meta_arg_of_pericenter": 75.0219,
        "meta_mean_anomaly": 348.5229,
        "meta_ephemeris_type": 0,
        "meta_classification_type": "U",
        "meta_norad_cat_id": 34050,
        "meta_element_set_no": 999,
        "meta_rev_at_epoch": 85427,
        "meta_bstar": 0.0007954815,
        "meta_mean_motion_dot": 1.305e-05,
        "meta_mean_motion_ddot": 0,
        "tle_line1": "1 34050U 93036JM  25346.40952638  .00001305  00000+0  79548-3 0  9994",
        "tle_line2": "2 34050  74.0883  10.6188 0214555  75.0219 348.5229 13.96180826854277"
      },
      "geometry": {
        "type": "Point",
        "coordinates": [
          -153.42488698459408,
          -46.875918417157614
        ]
      }
    },
    {
      "type": "Feature",
      "properties": {
        "norad_id": 34053,
        "name": "COSMOS 2251 DEB",
        "group": "cosmos-2251-debris",
        "lat": 73.27186857518774,
        "lon": -44.2886114362508,
        "alt_km": 883.8141389226212,
        "timestamp": "2025-12-13T10:41:26.159751+00:00",
        "meta_object_name": "COSMOS 2251 DEB",
        "meta_object_id": "1993-036JQ",
        "meta_epoch": "2025-12-12T18:17:00.097152",
        "meta_mean_motion": 13.49161453,
        "meta_eccentricity": 0.04222221,
        "meta_inclination": 73.8441,
        "meta_ra_of_asc_node": 242.1358,
        "meta_arg_of_pericenter": 30.6806,
        "meta_mean_anomaly": 331.8265,
        "meta_ephemeris_type": 0,
        "meta_classification_type": "U",
        "meta_norad_cat_id": 34053,
        "meta_element_set_no": 999,
        "meta_rev_at_epoch": 82684,
        "meta_bstar": 0.0010707402,
        "meta_mean_motion_dot": 1.146e-05,
        "meta_mean_motion_ddot": 0,
        "tle_line1": "1 34053U 93036JQ  25346.76180668  .00001146  00000+0  10707-2 0  9996",
        "tle_line2": "2 34053  73.8441 242.1358 0422222  30.6806 331.8265 13.49161453826849"
      },
      "geometry": {
        "type": "Point",
        "coordinates": [
          -44.2886114362508,
          73.27186857518774
        ]
      }
    }
  ]
}